[{"OBJECT_NAME":"STARLINK-34841","OBJECT_ID":"2025-176L","EPOCH":"2026-03-09T12:32:14.938368","MEAN_MOTION":15.30194917,"ECCENTRICITY":0.00013313,"INCLINATION":53.1573,"RA_OF_ASC_NODE":153.594,"ARG_OF_PERICENTER":48.47,"MEAN_ANOMALY":311.6415,"EPHEMERIS_TYPE":0,"CLASSIFICATION_TYPE":"U","NORAD_CAT_ID":65208,"ELEMENT_SET_NO":999,"REV_AT_EPOCH":3309,"BSTAR":0.0008395668,"MEAN_MOTION_DOT":0.00024585,"MEAN_MOTION_DDOT":0},{"OBJECT_NAME":"CZ-4B DEB","OBJECT_ID":"1999-057DZ","EPOCH":"2026-03-09T09:52:12.897696","MEAN_MOTION":15.33653758,"ECCENTRICITY":0.00127381,"INCLINATION":98.4932,"RA_OF_ASC_NODE":238.6814,"ARG_OF_PERICENTER":254.7139,"MEAN_ANOMALY":105.2693,"EPHEMERIS_TYPE":0,"CLASSIFICATION_TYPE":"U","NORAD_CAT_ID":26235,"ELEMENT_SET_NO":999,"REV_AT_EPOCH":38912,"BSTAR":0.0023807093,"MEAN_MOTION_DOT":0.00078286,"MEAN_MOTION_DDOT":0}]
